start=new Date('2022-06-23T00:00:00.000Z').valueOf();
sats=[{"REV_AT_EPOCH":"13092","DECAY_DATE":null,"SEMIMAJOR_AXIS":"6925.345","OBJECT_ID":"2020-012BC","SITE":"AFETR","MEAN_MOTION_DDOT":"0.0000000000000","NORAD_CAT_ID":"45228","OBJECT_TYPE":"PAYLOAD","TLE_LINE1":"1 45228U 20012BC  22173.80452905  .00001338  00000-0  10867-3 0  9994","TLE_LINE2":"2 45228  53.0553 333.4215 0001460  62.7171 297.3966 15.06401062130922","EPHEMERIS_TYPE":"0","GP_ID":"206647054","TIME_SYSTEM":"UTC","APOAPSIS":"548.221","MEAN_MOTION_DOT":"0.00001338","MEAN_ELEMENT_THEORY":"SGP4","EPOCH":"2022-06-22T19:18:31.309920","COUNTRY_CODE":"US","PERIAPSIS":"546.199","RA_OF_ASC_NODE":"333.4215","BSTAR":"0.00010867000000","MEAN_ANOMALY":"297.3966","REF_FRAME":"TEME","ELEMENT_SET_NO":"999","LAUNCH_DATE":"2020-02-17","ARG_OF_PERICENTER":"62.7171","OBJECT_NAME":"STARLINK-1222","RCS_SIZE":"LARGE","MEAN_MOTION":"15.06401062","CENTER_NAME":"EARTH","INCLINATION":"53.0553","PERIOD":"95.592","ECCENTRICITY":"0.00014600","FILE":"3500001","CLASSIFICATION_TYPE":"U"},{"LAUNCH_DATE":"2020-02-17","ARG_OF_PERICENTER":"63.4026","OBJECT_NAME":"STARLINK-1226","RCS_SIZE":"LARGE","MEAN_MOTION":"15.06392766","CENTER_NAME":"EARTH","INCLINATION":"53.0560","PERIOD":"95.593","ECCENTRICITY":"0.00017290","FILE":"3499900","CLASSIFICATION_TYPE":"U","APOAPSIS":"548.433","MEAN_MOTION_DOT":"-0.00000222","MEAN_ELEMENT_THEORY":"SGP4","EPOCH":"2022-06-22T18:25:27.691968","COUNTRY_CODE":"US","PERIAPSIS":"546.038","BSTAR":"0.00000399710000","RA_OF_ASC_NODE":"333.6035","MEAN_ANOMALY":"296.7140","ELEMENT_SET_NO":"999","REF_FRAME":"TEME","MEAN_MOTION_DDOT":"0.0000000000000","NORAD_CAT_ID":"45229","OBJECT_TYPE":"PAYLOAD","TLE_LINE1":"1 45229U 20012BD  22173.76768162 -.00000222  00000-0  39971-5 0  9996","TLE_LINE2":"2 45229  53.0560 333.6035 0001729  63.4026 296.7140 15.06392766130093","GP_ID":"206624298","EPHEMERIS_TYPE":"0","TIME_SYSTEM":"UTC","REV_AT_EPOCH":"13009","DECAY_DATE":null,"SEMIMAJOR_AXIS":"6925.371","OBJECT_ID":"2020-012BD","SITE":"AFETR"},{"OBJECT_ID":"2020-012BE","DECAY_DATE":null,"SEMIMAJOR_AXIS":"6925.384","REV_AT_EPOCH":"13009","SITE":"AFETR","OBJECT_TYPE":"PAYLOAD","NORAD_CAT_ID":"45230","MEAN_MOTION_DDOT":"0.0000000000000","TIME_SYSTEM":"UTC","EPHEMERIS_TYPE":"0","GP_ID":"206624290","TLE_LINE2":"2 45230  53.0565 333.6027 0001673  66.4475 293.6690 15.06388321130098","TLE_LINE1":"1 45230U 20012BE  22173.76399812  .00000056  00000-0  22642-4 0  9990","COUNTRY_CODE":"US","PERIAPSIS":"546.091","EPOCH":"2022-06-22T18:20:09.437568","MEAN_ELEMENT_THEORY":"SGP4","MEAN_MOTION_DOT":"0.00000056","APOAPSIS":"548.408","ELEMENT_SET_NO":"999","REF_FRAME":"TEME","MEAN_ANOMALY":"293.6690","RA_OF_ASC_NODE":"333.6027","BSTAR":"0.00002264200000","CENTER_NAME":"EARTH","MEAN_MOTION":"15.06388321","OBJECT_NAME":"STARLINK-1227","RCS_SIZE":"LARGE","ARG_OF_PERICENTER":"66.4475","LAUNCH_DATE":"2020-02-17","CLASSIFICATION_TYPE":"U","FILE":"3499900","ECCENTRICITY":"0.00016730","PERIOD":"95.593","INCLINATION":"53.0565"},{"GP_ID":"206646804","EPHEMERIS_TYPE":"0","TIME_SYSTEM":"UTC","TLE_LINE1":"1 45231U 20012BF  22173.65446093 -.00003711  00000-0 -18567-4 0  9997","TLE_LINE2":"2 45231  53.0222 156.2514 0008222 290.1330  69.8804 15.76713906133363","NORAD_CAT_ID":"45231","OBJECT_TYPE":"PAYLOAD","MEAN_MOTION_DDOT":"0.0000000000000","SITE":"AFETR","DECAY_DATE":null,"SEMIMAJOR_AXIS":"6717.895","OBJECT_ID":"2020-012BF","REV_AT_EPOCH":"13336","ECCENTRICITY":"0.00082220","FILE":"3500001","CLASSIFICATION_TYPE":"U","PERIOD":"91.329","INCLINATION":"53.0222","OBJECT_NAME":"STARLINK-1229","RCS_SIZE":"LARGE","MEAN_MOTION":"15.76713906","CENTER_NAME":"EARTH","LAUNCH_DATE":"2020-02-17","ARG_OF_PERICENTER":"290.1330","RA_OF_ASC_NODE":"156.2514","BSTAR":"-0.00001856700000","ELEMENT_SET_NO":"999","REF_FRAME":"TEME","MEAN_ANOMALY":"69.8804","MEAN_ELEMENT_THEORY":"SGP4","PERIAPSIS":"334.237","COUNTRY_CODE":"US","EPOCH":"2022-06-22T15:42:25.424352","APOAPSIS":"345.284","MEAN_MOTION_DOT":"-0.00003711"},{"TLE_LINE1":"1 45232U 20012BG  22173.70775718  .00001401  00000-0  11294-3 0  9994","TLE_LINE2":"2 45232  53.0553 333.8450 0001435  69.4824 290.6319 15.06394016131023","GP_ID":"206646554","EPHEMERIS_TYPE":"0","TIME_SYSTEM":"UTC","MEAN_MOTION_DDOT":"0.0000000000000","NORAD_CAT_ID":"45232","OBJECT_TYPE":"PAYLOAD","SITE":"AFETR","REV_AT_EPOCH":"13102","DECAY_DATE":null,"SEMIMAJOR_AXIS":"6925.367","OBJECT_ID":"2020-012BG","INCLINATION":"53.0553","PERIOD":"95.593","ECCENTRICITY":"0.00014350","CLASSIFICATION_TYPE":"U","FILE":"3500001","LAUNCH_DATE":"2020-02-17","ARG_OF_PERICENTER":"69.4824","RCS_SIZE":"LARGE","OBJECT_NAME":"STARLINK-1235","CENTER_NAME":"EARTH","MEAN_MOTION":"15.06394016","BSTAR":"0.00011294000000","RA_OF_ASC_NODE":"333.8450","MEAN_ANOMALY":"290.6319","ELEMENT_SET_NO":"999","REF_FRAME":"TEME","APOAPSIS":"548.226","MEAN_MOTION_DOT":"0.00001401","MEAN_ELEMENT_THEORY":"SGP4","EPOCH":"2022-06-22T16:59:10.220352","COUNTRY_CODE":"US","PERIAPSIS":"546.238"},{"TLE_LINE2":"2 45233  53.0558 353.6499 0001383  69.0563 291.0574 15.06389342130731","TLE_LINE1":"1 45233U 20012BH  22173.75478014 -.00000258  00000-0  15513-5 0  9999","TIME_SYSTEM":"UTC","EPHEMERIS_TYPE":"0","GP_ID":"206645803","MEAN_MOTION_DDOT":"0.0000000000000","OBJECT_TYPE":"PAYLOAD","NORAD_CAT_ID":"45233","SITE":"AFETR","REV_AT_EPOCH":"13073","OBJECT_ID":"2020-012BH","SEMIMAJOR_AXIS":"6925.381","DECAY_DATE":null,"PERIOD":"95.593","INCLINATION":"53.0558","FILE":"3500001","CLASSIFICATION_TYPE":"U","ECCENTRICITY":"0.00013830","ARG_OF_PERICENTER":"69.0563","LAUNCH_DATE":"2020-02-17","CENTER_NAME":"EARTH","MEAN_MOTION":"15.06389342","OBJECT_NAME":"STARLINK-1238","RCS_SIZE":"LARGE","ELEMENT_SET_NO":"999","REF_FRAME":"TEME","MEAN_ANOMALY":"291.0574","RA_OF_ASC_NODE":"353.6499","BSTAR":"0.00000155130000","MEAN_MOTION_DOT":"-0.00000258","APOAPSIS":"548.204","COUNTRY_CODE":"US","PERIAPSIS":"546.288","EPOCH":"2022-06-22T18:06:53.004096","MEAN_ELEMENT_THEORY":"SGP4"},{"SITE":"AFETR","REV_AT_EPOCH":"13045","SEMIMAJOR_AXIS":"6925.342","DECAY_DATE":null,"OBJECT_ID":"2020-012BJ","TLE_LINE1":"1 45234U 20012BJ  22173.85981978  .00002386  00000-0  17900-3 0  9992","TLE_LINE2":"2 45234  53.0568  13.1791 0001374  71.2936 288.8202 15.06402226130453","EPHEMERIS_TYPE":"0","GP_ID":"206646053","TIME_SYSTEM":"UTC","MEAN_MOTION_DDOT":"0.0000000000000","NORAD_CAT_ID":"45234","OBJECT_TYPE":"PAYLOAD","RA_OF_ASC_NODE":"13.1791","BSTAR":"0.00017900000000","ELEMENT_SET_NO":"999","REF_FRAME":"TEME","MEAN_ANOMALY":"288.8202","APOAPSIS":"548.158","MEAN_MOTION_DOT":"0.00002386","MEAN_ELEMENT_THEORY":"SGP4","COUNTRY_CODE":"US","PERIAPSIS":"546.255","EPOCH":"2022-06-22T20:38:08.428992","PERIOD":"95.592","INCLINATION":"53.0568","ECCENTRICITY":"0.00013740","FILE":"3500001","CLASSIFICATION_TYPE":"U","LAUNCH_DATE":"2020-02-17","ARG_OF_PERICENTER":"71.2936","OBJECT_NAME":"STARLINK-1243","RCS_SIZE":"LARGE","CENTER_NAME":"EARTH","MEAN_MOTION":"15.06402226"},{"TIME_SYSTEM":"UTC","EPHEMERIS_TYPE":"0","GP_ID":"206646304","TLE_LINE2":"2 45235  53.0551  13.2331 0001697  51.5559 308.5582 15.06392579130503","TLE_LINE1":"1 45235U 20012BK  22173.84508333  .00000720  00000-0  67246-4 0  9991","OBJECT_TYPE":"PAYLOAD","NORAD_CAT_ID":"45235","MEAN_MOTION_DDOT":"0.0000000000000","SITE":"AFETR","OBJECT_ID":"2020-012BK","SEMIMAJOR_AXIS":"6925.371","DECAY_DATE":null,"REV_AT_EPOCH":"13050","CLASSIFICATION_TYPE":"U","FILE":"3500001","ECCENTRICITY":"0.00016970","PERIOD":"95.593","INCLINATION":"53.0551","CENTER_NAME":"EARTH","MEAN_MOTION":"15.06392579","RCS_SIZE":"LARGE","OBJECT_NAME":"STARLINK-1246","ARG_OF_PERICENTER":"51.5559","LAUNCH_DATE":"2020-02-17","ELEMENT_SET_NO":"999","REF_FRAME":"TEME","MEAN_ANOMALY":"308.5582","BSTAR":"0.00006724600000","RA_OF_ASC_NODE":"13.2331","COUNTRY_CODE":"US","PERIAPSIS":"546.061","EPOCH":"2022-06-22T20:16:55.199712","MEAN_ELEMENT_THEORY":"SGP4","MEAN_MOTION_DOT":"0.00000720","APOAPSIS":"548.412"},{"PERIOD":"95.593","INCLINATION":"53.0575","ECCENTRICITY":"0.00017170","FILE":"3500001","CLASSIFICATION_TYPE":"U","LAUNCH_DATE":"2020-02-17","ARG_OF_PERICENTER":"44.5195","RCS_SIZE":"LARGE","OBJECT_NAME":"STARLINK-1247","MEAN_MOTION":"15.06391402","CENTER_NAME":"EARTH","RA_OF_ASC_NODE":"333.3191","BSTAR":"0.00004460100000","ELEMENT_SET_NO":"999","REF_FRAME":"TEME","MEAN_ANOMALY":"315.5932","APOAPSIS":"548.429","MEAN_MOTION_DOT":"0.00000383","MEAN_ELEMENT_THEORY":"SGP4","COUNTRY_CODE":"US","PERIAPSIS":"546.051","EPOCH":"2022-06-22T19:50:22.829568","TLE_LINE1":"1 45236U 20012BL  22173.82665312  .00000383  00000-0  44601-4 0  9996","TLE_LINE2":"2 45236  53.0575 333.3191 0001717  44.5195 315.5932 15.06391402131031","EPHEMERIS_TYPE":"0","GP_ID":"206647055","TIME_SYSTEM":"UTC","MEAN_MOTION_DDOT":"0.0000000000000","NORAD_CAT_ID":"45236","OBJECT_TYPE":"PAYLOAD","SITE":"AFETR","REV_AT_EPOCH":"13103","DECAY_DATE":null,"SEMIMAJOR_AXIS":"6925.375","OBJECT_ID":"2020-012BL"},{"REV_AT_EPOCH":"13104","SEMIMAJOR_AXIS":"6925.358","DECAY_DATE":null,"OBJECT_ID":"2020-012BM","SITE":"AFETR","MEAN_MOTION_DDOT":"0.0000000000000","NORAD_CAT_ID":"45237","OBJECT_TYPE":"PAYLOAD","TLE_LINE1":"1 45237U 20012BM  22173.84876405  .00000419  00000-0  47033-4 0  9998","TLE_LINE2":"2 45237  53.0549 333.2302 0001630  65.8018 294.3141 15.06396850131049","GP_ID":"206645303","EPHEMERIS_TYPE":"0","TIME_SYSTEM":"UTC","APOAPSIS":"548.352","MEAN_MOTION_DOT":"0.00000419","MEAN_ELEMENT_THEORY":"SGP4","PERIAPSIS":"546.094","COUNTRY_CODE":"US","EPOCH":"2022-06-22T20:22:13.213920","RA_OF_ASC_NODE":"333.2302","BSTAR":"0.00004703300000","REF_FRAME":"TEME","ELEMENT_SET_NO":"999","MEAN_ANOMALY":"294.3141","LAUNCH_DATE":"2020-02-17","ARG_OF_PERICENTER":"65.8018","RCS_SIZE":"LARGE","OBJECT_NAME":"STARLINK-1270","CENTER_NAME":"EARTH","MEAN_MOTION":"15.06396850","PERIOD":"95.592","INCLINATION":"53.0549","ECCENTRICITY":"0.00016300","CLASSIFICATION_TYPE":"U","FILE":"3500001"}];
